{
  "norad_id": 49431,
  "name": "STARLINK-3153",
  "history": [
    {
      "epoch": "2026-05-05T17:52:17.926752Z",
      "apogee_km": 540.6262549370867,
      "perigee_km": 538.882946253736,
      "latitude_deg": 5.176168188058091e-05,
      "longitude_deg": -158.51809277308894,
      "height_km": 540.6102865650201,
      "semi_major_axis_km": 6917.891600595411,
      "eccentricity": 0.000126,
      "inclination_deg": 53.2179,
      "raan_deg": 333.1718,
      "arg_perigee_deg": 87.3563,
      "mean_anomaly_deg": 272.7574,
      "mean_motion_rev_day": 15.08836332
    },
    {
      "epoch": "2026-05-06T20:53:51.867744Z",
      "apogee_km": 540.6763309139969,
      "perigee_km": 538.8596890583749,
      "latitude_deg": 4.890479992194259e-06,
      "longitude_deg": 149.92552500102533,
      "height_km": 540.5804337231762,
      "semi_major_axis_km": 6917.905009986185,
      "eccentricity": 0.0001313,
      "inclination_deg": 53.2182,
      "raan_deg": 328.1168,
      "arg_perigee_deg": 84.7294,
      "mean_anomaly_deg": 275.3848,
      "mean_motion_rev_day": 15.08831945
    },
    {
      "epoch": "2026-05-07T19:09:15.647328Z",
      "apogee_km": 540.6769787082221,
      "perigee_km": 538.8326687480167,
      "latitude_deg": 1.9832774092475828e-05,
      "longitude_deg": 170.99960495234862,
      "height_km": 540.61286372875,
      "semi_major_axis_km": 6917.89182372812,
      "eccentricity": 0.0001333,
      "inclination_deg": 53.2183,
      "raan_deg": 323.954,
      "arg_perigee_deg": 87.6509,
      "mean_anomaly_deg": 272.4636,
      "mean_motion_rev_day": 15.08836259
    },
    {
      "epoch": "2026-05-08T19:00:02.371968Z",
      "apogee_km": 540.6031748274872,
      "perigee_km": 538.8875400028483,
      "latitude_deg": -1.1163304878672362e-05,
      "longitude_deg": 167.865359726222,
      "height_km": 540.6116172254924,
      "semi_major_axis_km": 6917.8823574151675,
      "eccentricity": 0.000124,
      "inclination_deg": 53.2179,
      "raan_deg": 319.4938,
      "arg_perigee_deg": 88.018,
      "mean_anomaly_deg": 272.0954,
      "mean_motion_rev_day": 15.08839356
    }
  ]
}